{"type": "FeatureCollection", "features": [{"type": "Feature", "properties": {"norad_id": 50032, "name": "COSMOS 1408 DEB", "group": "cosmos-1408-debris", "lat": -54.54390245565753, "lon": -125.47414215856227, "alt_km": 433.74090583760153, "timestamp": "2025-12-26T22:28:06.054691+00:00", "meta": {"OBJECT_NAME": "COSMOS 1408 DEB", "OBJECT_ID": "1982-092RU", "EPOCH": "2025-12-26T13:41:14.335584", "MEAN_MOTION": 15.45830643, "ECCENTRICITY": 0.00166626, "INCLINATION": 82.5631, "RA_OF_ASC_NODE": 44.3315, "ARG_OF_PERICENTER": 157.9043, "MEAN_ANOMALY": 202.2928, "EPHEMERIS_TYPE": 0, "CLASSIFICATION_TYPE": "U", "NORAD_CAT_ID": 50032, "ELEMENT_SET_NO": 999, "REV_AT_EPOCH": 22817, "BSTAR": 0.00010349994, "MEAN_MOTION_DOT": 5.085e-05, "MEAN_MOTION_DDOT": 0}, "tle": {"line1": "1 50032U 82092RU  25360.57030481  .00005085  00000+0  10350-3 0  9994", "line2": "2 50032  82.5631  44.3315 0016662 157.9043 202.2928 15.45830643228171"}}, "geometry": {"type": "Point", "coordinates": [-125.47414215856227, -54.54390245565753]}}, {"type": "Feature", "properties": {"norad_id": 50058, "name": "COSMOS 1408 DEB", "group": "cosmos-1408-debris", "lat": -45.73538833685351, "lon": 46.82231199962373, "alt_km": 381.3427048479216, "timestamp": "2025-12-26T22:28:06.054713+00:00", "meta": {"OBJECT_NAME": "COSMOS 1408 DEB", "OBJECT_ID": "1982-092SW", "EPOCH": "2025-12-26T13:27:27.815904", "MEAN_MOTION": 15.64941928, "ECCENTRICITY": 0.00157888, "INCLINATION": 82.6117, "RA_OF_ASC_NODE": 54.8668, "ARG_OF_PERICENTER": 51.6481, "MEAN_ANOMALY": 308.6195, "EPHEMERIS_TYPE": 0, "CLASSIFICATION_TYPE": "U", "NORAD_CAT_ID": 50058, "ELEMENT_SET_NO": 999, "REV_AT_EPOCH": 23020, "BSTAR": 0.00032591019, "MEAN_MOTION_DOT": 0.00032187, "MEAN_MOTION_DDOT": 0}, "tle": {"line1": "1 50058U 82092SW  25360.56073861  .00032187  00000+0  32591-3 0  9994", "line2": "2 50058  82.6117  54.8668 0015788  51.6481 308.6195 15.64941928230204"}}, "geometry": {"type": "Point", "coordinates": [46.82231199962373, -45.73538833685351]}}, {"type": "Feature", "properties": {"norad_id": 50404, "name": "COSMOS 1408 DEB", "group": "cosmos-1408-debris", "lat": 49.44684997168569, "lon": -150.30959020424697, "alt_km": 530.7800088743406, "timestamp": "2025-12-26T22:28:06.054726+00:00", "meta": {"OBJECT_NAME": "COSMOS 1408 DEB", "OBJECT_ID": "1982-092ADS", "EPOCH": "2025-12-26T12:44:23.536608", "MEAN_MOTION": 15.16044724, "ECCENTRICITY": 0.01658111, "INCLINATION": 82.2023, "RA_OF_ASC_NODE": 200.8914, "ARG_OF_PERICENTER": 151.3559, "MEAN_ANOMALY": 209.691, "EPHEMERIS_TYPE": 0, "CLASSIFICATION_TYPE": "U", "NORAD_CAT_ID": 50404, "ELEMENT_SET_NO": 999, "REV_AT_EPOCH": 21402, "BSTAR": 0.003182209, "MEAN_MOTION_DOT": 0.00087949, "MEAN_MOTION_DDOT": 0}, "tle": {"line1": "1 50404U 82092ADS 25360.53082797  .00087949  00000+0  31822-2 0  9995", "line2": "2 50404  82.2023 200.8914 0165811 151.3559 209.6910 15.16044724214027"}}, "geometry": {"type": "Point", "coordinates": [-150.30959020424697, 49.44684997168569]}}, {"type": "Feature", "properties": {"norad_id": 50621, "name": "COSMOS 1408 DEB", "group": "cosmos-1408-debris", "lat": -52.101551779085106, "lon": 49.74130306723449, "alt_km": 420.09643065285854, "timestamp": "2025-12-26T22:28:06.054738+00:00", "meta": {"OBJECT_NAME": "COSMOS 1408 DEB", "OBJECT_ID": "1982-092ALR", "EPOCH": "2025-12-26T04:11:24.957024", "MEAN_MOTION": 15.573508, "ECCENTRICITY": 0.0029295, "INCLINATION": 82.5694, "RA_OF_ASC_NODE": 60.187, "ARG_OF_PERICENTER": 104.4386, "MEAN_ANOMALY": 256.0123, "EPHEMERIS_TYPE": 0, "CLASSIFICATION_TYPE": "U", "NORAD_CAT_ID": 50621, "ELEMENT_SET_NO": 999, "REV_AT_EPOCH": 22459, "BSTAR": 0.00035611, "MEAN_MOTION_DOT": 0.00026635, "MEAN_MOTION_DDOT": 0}, "tle": {"line1": "1 50621U 82092ALR 25360.17459441  .00026635  00000+0  35611-3 0  9996", "line2": "2 50621  82.5694  60.1870 0029295 104.4386 256.0123 15.57350800224590"}}, "geometry": {"type": "Point", "coordinates": [49.74130306723449, -52.101551779085106]}}]}